[{"OBJECT_NAME":"POLYITAN-1","OBJECT_ID":"2014-033AJ","EPOCH":"2026-03-09T22:27:50.258304","MEAN_MOTION":15.29568085,"ECCENTRICITY":0.00093607,"INCLINATION":98.1053,"RA_OF_ASC_NODE":86.0432,"ARG_OF_PERICENTER":127.248,"MEAN_ANOMALY":232.9614,"EPHEMERIS_TYPE":0,"CLASSIFICATION_TYPE":"U","NORAD_CAT_ID":40042,"ELEMENT_SET_NO":999,"REV_AT_EPOCH":63840,"BSTAR":0.00083772474,"MEAN_MOTION_DOT":0.00024003,"MEAN_MOTION_DDOT":0},{"OBJECT_NAME":"STARLINK-35608","OBJECT_ID":"2025-263Z","EPOCH":"2026-03-09T03:20:05.314560","MEAN_MOTION":15.27569338,"ECCENTRICITY":0.00011551,"INCLINATION":43,"RA_OF_ASC_NODE":353.8938,"ARG_OF_PERICENTER":287.9889,"MEAN_ANOMALY":72.0837,"EPHEMERIS_TYPE":0,"CLASSIFICATION_TYPE":"U","NORAD_CAT_ID":66508,"ELEMENT_SET_NO":999,"REV_AT_EPOCH":1881,"BSTAR":0.0012487186,"MEAN_MOTION_DOT":0.00034248,"MEAN_MOTION_DDOT":0}]
